IRIDIUM 126             
1 42809U 17039G   24024.94910711  .00000111  00000+0  32680-4 0  9992
2 42809  86.3989 358.9878 0002353  77.7996 282.3463 14.34216775344643
IRIDIUM 124             
1 42810U 17039H   24024.79048025  .00000878  00000+0  25512-3 0  9992
2 42810  86.4500 295.8118 0001896  87.8505 272.2913 14.43273863348991
IRIDIUM 128             
1 42811U 17039J   24024.93984486  .00000227  00000+0  73994-4 0  9995
2 42811  86.3954  30.5024 0002115  87.9254 272.2184 14.34218263344675
IRIDIUM 121             
1 42812U 17039K   24025.45651548  .00000002  00000+0 -63683-5 0  9991
2 42812  86.3988 358.7982 0002155  90.3360 269.8082 14.34217472344716
IRIDIUM 133             
1 42955U 17061A   24024.97155791  .00000286  00000+0  95004-4 0  9993
2 42955  86.3955  30.5853 0002302  87.6167 272.5292 14.34220220329473
IRIDIUM 100             
1 42956U 17061B   24024.96522189  .00000292  00000+0  97205-4 0  9994
2 42956  86.3953  30.5271 0002143  88.6791 271.4650 14.34218275329476
IRIDIUM 122             
1 42957U 17061C   24024.93349959  .00000205  00000+0  66024-4 0  9993
2 42957  86.3954  30.5386 0002109  86.0235 274.1202 14.34216475329475
IRIDIUM 129             
1 42958U 17061D   24024.95887161  .00000285  00000+0  94741-4 0  9993
2 42958  86.3955  30.5856 0002181  85.5931 274.5513 14.34220538329492
